{
    "links": {
        "self": "http://www.neowsapp.com/rest/v1/neo/3771643?api_key=iIulBulltgU6a56xZRHN4H3l9WmuAYTsLGpBGhQ2"
    },
    "id": "3771643",
    "neo_reference_id": "3771643",
    "name": "(2017 FK3)",
    "designation": "2017 FK3",
    "nasa_jpl_url": "http://ssd.jpl.nasa.gov/sbdb.cgi?sstr=3771643",
    "absolute_magnitude_h": 26.2,
    "estimated_diameter": {
        "kilometers": {
            "estimated_diameter_min": 0.0152951935,
            "estimated_diameter_max": 0.0342010925
        },
        "meters": {
            "estimated_diameter_min": 15.2951935344,
            "estimated_diameter_max": 34.201092472
        },
        "miles": {
            "estimated_diameter_min": 0.0095039897,
            "estimated_diameter_max": 0.021251567
        },
        "feet": {
            "estimated_diameter_min": 50.1810827555,
            "estimated_diameter_max": 112.2083122258
        }
    },
    "is_potentially_hazardous_asteroid": false,
    "close_approach_data": [
        {
            "close_approach_date": "2017-03-27",
            "close_approach_date_full": "2017-Mar-27 20:49",
            "epoch_date_close_approach": 1490647740000,
            "relative_velocity": {
                "kilometers_per_second": "8.9036530545",
                "kilometers_per_hour": "32053.150996291",
                "miles_per_hour": "19916.5815176676"
            },
            "miss_distance": {
                "astronomical": "0.0232557548",
                "lunar": "9.0464886172",
                "kilometers": "3479011.383322276",
                "miles": "2161757.4315723688"
            },
            "orbiting_body": "Earth"
        },
        {
            "close_approach_date": "2019-07-12",
            "close_approach_date_full": "2019-Jul-12 08:19",
            "epoch_date_close_approach": 1562919540000,
            "relative_velocity": {
                "kilometers_per_second": "15.3140867949",
                "kilometers_per_hour": "55130.7124616623",
                "miles_per_hour": "34256.0807515257"
            },
            "miss_distance": {
                "astronomical": "0.2270000988",
                "lunar": "88.3030384332",
                "kilometers": "33958731.270269556",
                "miles": "21100977.1460336328"
            },
            "orbiting_body": "Earth"
        }
    ],
    "orbital_data": {
        "orbit_id": "5",
        "orbit_determination_date": "2017-04-06 08:19:19",
        "first_observation_date": "2017-03-20",
        "last_observation_date": "2017-03-26",
        "data_arc_in_days": 6,
        "observations_used": 36,
        "orbit_uncertainty": "8",
        "minimum_orbit_intersection": ".0196674",
        "jupiter_tisserand_invariant": "4.194",
        "epoch_osculation": "2457834.5",
        "eccentricity": ".4255484432614398",
        "semi_major_axis": "1.636783148399703",
        "inclination": "1.920405433696476",
        "ascending_node_longitude": "153.6455114202325",
        "orbital_period": "764.8656275233003",
        "perihelion_distance": ".9402526276416513",
        "perihelion_argument": "72.87593374220283",
        "aphelion_distance": "2.333313669157755",
        "perihelion_time": "2457871.810234903568",
        "mean_anomaly": "342.43915783119",
        "mean_motion": ".470670908778723",
        "equinox": "J2000",
        "orbit_class": {
            "orbit_class_type": "APO",
            "orbit_class_description": "Near-Earth asteroid orbits which cross the Earth’s orbit similar to that of 1862 Apollo",
            "orbit_class_range": "a (semi-major axis) > 1.0 AU; q (perihelion) < 1.017 AU"
        }
    },
    "is_sentry_object": false
}